[
   {
      "street": "Bahnhofstrasse 5+7",
      "plz": 5000,
      "city": "Aarau",
      "short": "AG"
   },
   {
      "street": "Mellingerstrasse 208",
      "plz": 5405,
      "city": "Baden-Dättwil",
      "short": "AG"
   },
   {
      "street": "Zufikerstrasse 1",
      "plz": 5620,
      "city": "Bremgarten",
      "short": "AG"
   },
   {
      "street": "Autobahnraststätte Süd",
      "plz": 5742,
      "city": "Kölliken",
      "short": "AG"
   },
   {
      "street": "Brauereiweg 7",
      "plz": 5600,
      "city": "Lenzburg",
      "short": "AG"
   },
   {
      "street": "Aeussere Luzernerstrasse 13",
      "plz": 4665,
      "city": "Oftringen",
      "short": "AG"
   },
   {
      "street": "Shoppi Tivoli",
      "plz": 8957,
      "city": "Spreitenbach",
      "short": "AG"
   },
   {
      "street": "Wigartestrasse 4",
      "plz": 8957,
      "city": "Spreitenbach",
      "short": "AG"
   },
   {
      "street": "Bernstrasse Ost 51",
      "plz": 5034,
      "city": "Suhr",
      "short": "AG"
   },
   {
      "street": "Aarauerstrasse 72",
      "plz": 5734,
      "city": "Reinach",
      "short": "AG"
   },
   {
      "street": "Bahnhofplatz, Unterführung",
      "plz": 3011,
      "city": "Bern",
      "short": "BE"
   },
   {
      "street": "Schanzenstrasse 4+5",
      "plz": 3000,
      "city": "Bern",
      "short": "BE"
   },
   {
      "street": "Neuengasse 24",
      "plz": 3011,
      "city": "Bern",
      "short": "BE"
   },
   {
      "street": "Papiermühlestrasse 73",
      "plz": 3014,
      "city": "Bern",
      "short": "BE"
   },
   {
      "street": "Gilberte-de-Courgenay-Platz 4",
      "plz": 3027,
      "city": "Bern",
      "short": "BE"
   },
   {
      "street": "Grenchenstrasse 3",
      "plz": 2504,
      "city": "Biel",
      "short": "BE"
   },
   {
      "street": "Bahnofplatz 4 ",
      "plz": 2501,
      "city": "Bienne ",
      "short": "BE"
   },
   {
      "street": "Nidaugasse 43",
      "plz": 2502,
      "city": "Biel",
      "short": "BE"
   },
   {
      "street": "Kirchbergstrasse 237",
      "plz": 3400,
      "city": "Burgdorf",
      "short": "BE"
   },
   {
      "street": "Blüemlisalpstrasse 36",
      "plz": 3627,
      "city": "Heimberg",
      "short": "BE"
   },
   {
      "street": "Könizstrasse 294",
      "plz": 3098,
      "city": "Köniz",
      "short": "BE"
   },
   {
      "street": "Melchnaustrasse 1",
      "plz": 4900,
      "city": "Langenthal",
      "short": "BE"
   },
   {
      "street": "Bäraugrundstrasse 16",
      "plz": 3550,
      "city": "Langnau",
      "short": "BE"
   },
   {
      "street": "Hirschenplatz 1",
      "plz": 3250,
      "city": "Lyss",
      "short": "BE"
   },
   {
      "street": "Industriestrasse 10",
      "plz": 3321,
      "city": "Schönbühl",
      "short": "BE"
   },
   {
      "street": "BeoCenter, Simmentalstrasse 23",
      "plz": 3700,
      "city": "Spiez",
      "short": "BE"
   },
   {
      "street": "Bälliz 22",
      "plz": 3600,
      "city": "Thun",
      "short": "BE"
   },
   {
      "street": "Bernstrasse 226",
      "plz": 3052,
      "city": "Zollikofen",
      "short": "BE"
   },
   {
      "street": "Paradiesrain 1",
      "plz": 4123,
      "city": "Allschwil",
      "short": "BL"
   },
   {
      "street": "Wölferstrasse 2",
      "plz": 4414,
      "city": "Füllinsdorf",
      "short": "BL"
   },
   {
      "street": "Lerchenweg 18",
      "plz": 4303,
      "city": "Kaiseraugst",
      "short": "BL"
   },
   {
      "street": "Ziegeleistrasse 40",
      "plz": 4242,
      "city": "Laufen",
      "short": "BL"
   },
   {
      "street": "Poststrasse 1",
      "plz": 4410,
      "city": "Liestal",
      "short": "BL"
   },
   {
      "street": "Grüssenweg 9",
      "plz": 4133,
      "city": "Pratteln",
      "short": "BL"
   },
   {
      "street": "Gewerbestrasse 2",
      "plz": 4450,
      "city": "Sissach",
      "short": "BL"
   },
   {
      "street": "Oberwilerstrasse 46",
      "plz": 4106,
      "city": "Therwil",
      "short": "BL"
   },
    {
      "street": "Bruderholzstrasse 41",
      "plz": 4142,
      "city": "Münchenstein",
      "short": "BL"
   },
   {
      "street": "Barfüsserplatz 9",
      "plz": 4051,
      "city": "Basel",
      "short": "BS"
   },
   {
      "street": "Centralbahnhofstrasse 13",
      "plz": 4002,
      "city": "Basel",
      "short": "BS"
   },
   {
      "street": "Greifengasse 15",
      "plz": 4058,
      "city": "Basel",
      "short": "BS"
   },
   {
      "street": "Marktplatz 18",
      "plz": 4051,
      "city": "Basel",
      "short": "BS"
   },
   {
      "street": "Schwarzwaldallee 183",
      "plz": 4058,
      "city": "Basel",
      "short": "BS"
   },
   {
      "street": "Hochbergerstrasse 70",
      "plz": 4057,
      "city": "Basel",
      "short": "BS"
   },
   {
      "street": "Grand Ferme 16",
      "plz": 3280,
      "city": "Murten",
      "short": "FR"
   },
   {
      "street": "Alexanderstrasse 8",
      "plz": 7001,
      "city": "Chur",
      "short": "GR"
   },
   {
      "street": "Richtstrasse 19",
      "plz": 7007,
      "city": "Chur",
      "short": "GR"
   },
   {
      "street": "Iseliguet 2",
      "plz": 8750,
      "city": "Glarus",
      "short": "GL"
   },
    {
      "street": "Industriestrasse 1, Aupark",
      "plz": 9495,
      "city": "Triesen",
      "short": "FL"
   },
   {
      "street": "Kantonsstrasse",
      "plz": 6036,
      "city": "Dierikon",
      "short": "LU"
   },
   {
      "street": "Mall of Switzerland",
      "plz": 6030,
      "city": "Ebikon",
      "short": "LU"
   },
   {
      "street": "Seetalplatz",
      "plz": 6020,
      "city": "Emmenbrücke",
      "short": "LU"
   },
   {
      "street": "Mattenhof, Nidfeldstrasse 14",
      "plz": 6010,
      "city": "Kriens",
      "short": "LU"
   },
   {
      "street": "Pilatusstrasse 1",
      "plz": 6003,
      "city": "Luzern",
      "short": "LU"
   },
   {
      "street": "Hertensteinstrasse 32",
      "plz": 6004,
      "city": "Luzern",
      "short": "LU"
   },
   {
      "street": "Surentalstrasse 10",
      "plz": 6210,
      "city": "Sursee",
      "short": "LU"
   },
   {
      "street": "Bildstrasse 2",
      "plz": 9015,
      "city": "St. Gallen",
      "short": "SG"
   },
   {
      "street": "Bahnhofstrasse 21",
      "plz": 9470,
      "city": "Buchs",
      "short": "SG"
   },
   {
      "street": "Wilerstrasse 90, 9200 Gossau",
      "plz": 9200,
      "city": "Gossau",
      "short": "SG"
   },
   {
      "street": "Markt am Bohl",
      "plz": 9004,
      "city": "St. Gallen",
      "short": "SG"
   },
   {
      "street": "Grossfeldstrasse 67",
      "plz": 8887,
      "city": "Mels",
      "short": "SG"
   },
   {
      "street": "Fischmarktplatz 7",
      "plz": 8640,
      "city": "Rapperswil",
      "short": "SG"
   },
   {
      "street": "St.Leonhard-Strasse 32",
      "plz": 9001,
      "city": "St. Gallen",
      "short": "SG"
   },
   {
      "street": "Neugrütstrasse 1",
      "plz": 9430,
      "city": "St. Margrethen",
      "short": "SG"
   },
   {
      "street": "Autobahnraststätte Thurau Süd 927",
      "plz": 9523,
      "city": "Züberwangen ",
      "short": "SG"
   },
   {
      "street": "Toggenburgstrasse 154",
      "plz": 9500,
      "city": "Wil",
      "short": "SG"
   },
   {
      "street": "Vorstadt 19",
      "plz": 8200,
      "city": "Schaffhausen",
      "short": "SH"
   },
   {
      "street": "Oltenerstrasse 502",
      "plz": 4622,
      "city": "Egerkingen",
      "short": "SO"
   },
   {
      "street": "Leimenstrasse 2",
      "plz": 2540,
      "city": "Grenchen",
      "short": "SO"
   },
   {
      "street": "Kirchgasse 1",
      "plz": 4600,
      "city": "Olten",
      "short": "SO"
   },
   {
      "street": "Schützenweg 2",
      "plz": 4528,
      "city": "Zuchwil",
      "short": "SO"
   },
   {
      "street": "Autobahnzentrum Fuchsberg",
      "plz": 8832,
      "city": "Wollerau",
      "short": "SZ"
   },
   {
      "street": "Steinbislin",
      "plz": 6423,
      "city": "Seewen",
      "short": "SZ"
   },
   {
      "street": "Pündtstrasse 2",
      "plz": 9320,
      "city": "Arbon",
      "short": "TG"
   },
   {
      "street": "Riedstrasse 1",
      "plz": 8500,
      "city": "Frauenfeld",
      "short": "TG"
   },
   {
      "street": "Romanshornstrasse 120",
      "plz": 8280,
      "city": "Kreuzlingen",
      "short": "TG"
   },
   {
      "street": "Dunantstrasse 6",
      "plz": 8570,
      "city": "Weinfelden",
      "short": "TG"
   },
   {
      "street": "Kantonsstrasse 288",
      "plz": 3900,
      "city": "Brig Glis",
      "short": "VS"
   },
   {
      "street": "Bahnhofstrasse 17",
      "plz": 3930,
      "city": "Visp",
      "short": "VS"
   },
   {
      "street": "Bahnhofstrasse ",
      "plz": 3920,
      "city": "Zermatt",
      "short": "VS"
   },
   {
      "street": "Zugerstrasse 62",
      "plz": 6340,
      "city": "Baar",
      "short": "ZG"
   },
   {
      "street": "Blegistrasse 1",
      "plz": 6340,
      "city": "Sihlbrugg",
      "short": "ZG"
   },
   {
      "street": "Industriestrasse 8",
      "plz": 8910,
      "city": "Affoltern A.A",
      "short": "ZH"
   },
   {
      "street": "Badenerstrasse 21",
      "plz": 8004,
      "city": "Zürich",
      "short": "ZH"
   },
   {
      "street": "Schleufenbergstrasse 1",
      "plz": 8180,
      "city": "Bülach",
      "short": "ZH"
   },
   {
      "street": "Bahnhofplatz 5",
      "plz": 8001,
      "city": "Zürich",
      "short": "ZH"
   },
   {
      "street": "Niederhaslistrasse 7",
      "plz": 8157,
      "city": "Dielsdorf",
      "short": "ZH"
   },
   {
      "street": "Widenholzstrasse 2",
      "plz": 8305,
      "city": "Dietlikon",
      "short": "ZH"
   },
   {
      "street": "Tessinerplatz 10",
      "plz": 8002,
      "city": "Zürich",
      "short": "ZH"
   },
   {
      "street": "Winterthurerstrasse 99 ",
      "plz": 8301,
      "city": "Glattzentrum",
      "short": "ZH"
   },
   {
      "street": "Foodland Airport, Postfach 2413",
      "plz": 8058,
      "city": "Zürich",
      "short": "ZH"
   },
   {
      "street": "Wässeristrasse 22",
      "plz": 8340,
      "city": "Hinwil",
      "short": "ZH"
   },
   {
      "street": "Langstrasse 201",
      "plz": 8005,
      "city": "Zürich",
      "short": "ZH"
   },
   {
      "street": "Hohlstrasse 467",
      "plz": 8048,
      "city": "Zürich",
      "short": "ZH"
   },
   {
      "street": "Löwenstrasse 53",
      "plz": 8001,
      "city": "Zürich",
      "short": "ZH"
   },
   {
      "street": "Hofwiesenstrasse 350",
      "plz": 8050,
      "city": "Zürich",
      "short": "ZH"
   },
   {
      "street": "Adlikerstrasse 297",
      "plz": 8105,
      "city": "Regensdorf",
      "short": "ZH"
   },
   {
      "street": "Flughofstrasse 75",
      "plz": 8153,
      "city": "Rümlang",
      "short": "ZH"
   },
   {
      "street": "Friedaustrasse 8",
      "plz": 8952,
      "city": "Schlieren",
      "short": "ZH"
   },
   {
      "street": "Gottfried-Kellerstrasse 7",
      "plz": 8001,
      "city": "Zürich",
      "short": "ZH"
   },
   {
      "street": "Poststrasse 2",
      "plz": 8610,
      "city": "Uster",
      "short": "ZH"
   },
   {
      "street": "Hofwiesenstrasse 2 ",
      "plz": 8604,
      "city": "Volketswil",
      "short": "ZH"
   },
   {
      "street": "Seestrasse 200",
      "plz": 8820,
      "city": "Wädenswil",
      "short": "ZH"
   },
   {
      "street": "Grüzefeldstrasse 1",
      "plz": 8404,
      "city": "Winterthur",
      "short": "ZH"
   },
   {
      "street": "Untertor 37",
      "plz": 8400,
      "city": "Winterthur",
      "short": "ZH"
   },
   {
      "street": "Zürcherstrasse 50",
      "plz": 8400,
      "city": "Winterthur",
      "short": "ZH"
   },
   {
      "street": "Rte de Matran 9",
      "plz": 1754,
      "city": "Avry",
      "short": "FR"
   },
   {
      "street": "Rue de Dardens 2",
      "plz": 1630,
      "city": "Bulle",
      "short": "FR"
   },
   {
      "street": "Rue de Romont 15",
      "plz": 1700,
      "city": "Fribourg",
      "short": "FR"
   },
   {
      "street": "Rte d'Englisberg ",
      "plz": 1763,
      "city": "Granges-Paccot",
      "short": "FR"
   },
   {
      "street": "Route de l'Intyamon 107",
      "plz": 1635,
      "city": "La Tour-de-Trême",
      "short": "FR"
   },
   {
      "street": "Restoroute Rose de la Broye A1",
      "plz": 1470,
      "city": "Lully",
      "short": "FR"
   },
   {
      "street": "Avenue Louis-Casaï 11",
      "plz": 1220,
      "city": "Les Avanchets",
      "short": "GE"
   },
   {
      "street": "Avenue Louis-Casaï 27",
      "plz": 1209,
      "city": "Genève",
      "short": "GE"
   },
   {
      "street": "Rte de Thonon 152",
      "plz": 1245,
      "city": "Collonge-Bellerive",
      "short": "GE"
   },
   {
      "street": "Route des Jeunes 9",
      "plz": 1227,
      "city": "Genève Les Acacias",
      "short": "GE"
   },
   {
      "street": "Rte de l'aéroport 13 ",
      "plz": 1215,
      "city": "Genève",
      "short": "GE"
   },
   {
      "street": "Cours de Rive 3",
      "plz": 1204,
      "city": "Genève",
      "short": "GE"
   },
   {
      "street": "Route des Jeunes 10",
      "plz": 1227,
      "city": "Carouge",
      "short": "GE"
   },
   {
      "street": "Rue de Lausanne 18-20",
      "plz": 1201,
      "city": "Genève",
      "short": "GE"
   },
   {
      "street": "Passage Malbuisson, Rue du Marche 9-11",
      "plz": 1204,
      "city": "Genève",
      "short": "GE"
   },
   {
      "street": "Rue de Mont-Blanc 22",
      "plz": 1201,
      "city": "Genève",
      "short": "GE"
   },
   {
      "street": "Rond-Point de Plainpalais 1",
      "plz": 1205,
      "city": "Genève",
      "short": "GE"
   },
   {
      "street": "Rue de la Servette 93",
      "plz": 1201,
      "city": "Genève",
      "short": "GE"
   },
   {
      "street": "40 Route du Bois-des-Frères",
      "plz": 1219,
      "city": "Le Lignon",
      "short": "GE"
   },
   {
      "street": "Riantbosson Centre, 19 chemin de Riantbosson",
      "plz": 1217,
      "city": "Genève",
      "short": "GE"
   },
   {
      "street": "Rte de Moutier 115",
      "plz": 2800,
      "city": "Delemont",
      "short": "JU"
   },
   {
      "street": "Bd des Eplatures 62",
      "plz": 2300,
      "city": "La Chaux de Fonds",
      "short": "NE"
   },
   {
      "street": "Place de la Gare 6",
      "plz": 2300,
      "city": "La Chaux de Fonds",
      "short": "NE"
   },
   {
      "street": "Rue de l'Hôpital 20",
      "plz": 2000,
      "city": "Neuchâtel",
      "short": "NE"
   },
   {
      "street": "Z.I. les Perveuils",
      "plz": 2074,
      "city": "Marin-Epagnier",
      "short": "NE"
   },
   {
      "street": "Place de la Gare 1",
      "plz": 2000,
      "city": "Neuchatel",
      "short": "NE"
   },
   {
      "street": "Route  de Genève 9b",
      "plz": 1033,
      "city": "Cheseaux",
      "short": "VD"
   },
   {
      "street": "Ch.De Closalet 7",
      "plz": 1023,
      "city": "Crissier",
      "short": "VD"
   },
   {
      "street": "Rte de l'Industrie 10B",
      "plz": 1163,
      "city": "Etoy",
      "short": "VD"
   },
   {
      "street": "Place de la Gare 4",
      "plz": 1003,
      "city": "Lausanne",
      "short": "VD"
   },
   {
      "street": "Rue de Genève 33",
      "plz": 1003,
      "city": "Lausanne",
      "short": "VD"
   },
   {
      "street": "Rue des Terreaux 22",
      "plz": 1003,
      "city": "Lausanne",
      "short": "VD"
   },
   {
      "street": "Rue de Bourg 47-49",
      "plz": 1003,
      "city": "Lausanne",
      "short": "VD"
   },
   {
      "street": "Rue de St-Laurent 20",
      "plz": 1003,
      "city": "Lausanne",
      "short": "VD"
   },
   {
      "street": "Place du Marche 6b",
      "plz": 1820,
      "city": "Montreux",
      "short": "VD"
   },
   {
      "street": "Place de la Gare ",
      "plz": 1110,
      "city": "Morges",
      "short": "VD"
   },
   {
      "street": "A.de la Gare 26",
      "plz": 1260,
      "city": "Nyon",
      "short": "VD"
   },
   {
      "street": "Ch. de la Fontaine 10",
      "plz": 1260,
      "city": "Nyon",
      "short": "VD"
   },
   {
      "street": "Rue de Lausanne 6",
      "plz": 1530,
      "city": "Payerne",
      "short": "VD"
   },
   {
      "street": "Rue de Crissier 4b",
      "plz": 1020,
      "city": "Renens",
      "short": "VD"
   },
   {
      "street": "Route de Pré-de-la-Croix 316",
      "plz": 1847,
      "city": "Rennaz",
      "short": "VD"
   },
   {
      "street": "CC St.Antoine, 15 Av.General Guisan",
      "plz": 1800,
      "city": "Vevey",
      "short": "VD"
   },
   {
      "street": "Place Bel-Air",
      "plz": 1400,
      "city": "Yverdon",
      "short": "VD"
   },
   {
      "street": "En Chamard",
      "plz": 1442,
      "city": "Montagny-près-Yverdon",
      "short": "VD"
   },
   {
      "street": "Relais autorout.du Chablais Est",
      "plz": 1853,
      "city": "Yvorne",
      "short": "VS"
   },
   {
      "street": "Relais autor.du Chablais Ouest",
      "plz": 1853,
      "city": "Yvorne",
      "short": "VS"
   },
   {
      "street": "Z.A. Pré du Pont 105",
      "plz": 1868,
      "city": "Collombey",
      "short": "VS"
   },
   {
      "street": "Route des Rottes",
      "plz": 1964,
      "city": "Conthey",
      "short": "VS"
   },
   {
      "street": "Av.de la Gare 5",
      "plz": 1920,
      "city": "Martigny",
      "short": "VS"
   },
   {
      "street": "Rue de Potence 2",
      "plz": 1960,
      "city": "Sierre",
      "short": "VS"
   },
   {
      "street": "Les Deux-Gares",
      "plz": 1950,
      "city": "Sion",
      "short": "VS"
   },
   {
      "street": "Riva Albertolli 1",
      "plz": 6900,
      "city": "Lugano",
      "short": "TI"
   },
   {
      "street": "Via Zorzi 36",
      "plz": 6500,
      "city": "Bellinzona",
      "short": "TI"
   },
   {
      "street": "Via Stazione 1",
      "plz": 6600,
      "city": "Locarno",
      "short": "TI"
   },
   {
      "street": "Via Cantonale 12",
      "plz": 6983,
      "city": "Magliaso",
      "short": "TI"
   },
   {
      "street": "Via Angelo Maspoli 17",
      "plz": 6850,
      "city": "Mendrisio",
      "short": "TI"
   },
   {
      "street": "Via Serfontana",
      "plz": 6834,
      "city": "Morbio",
      "short": "TI"
   },
   {
      "street": "Via alla Sguancia 9 / Pazzallo",
      "plz": 6915,
      "city": "Pambio-Noranco",
      "short": "TI"
   },
   {
      "street": "Via Gorelle 8",
      "plz": 6592,
      "city": "Sant'Antonino",
      "short": "TI"
   }
]